{
  "type": "FeatureCollection",
  "features": [
    {
      "type": "Feature",
      "properties": {
        "norad_id": 22490,
        "name": "SCD 1",
        "group": "resource",
        "lat": -14.299836092087775,
        "lon": 143.9381503302053,
        "alt_km": 737.5163056188758,
        "timestamp": "2025-12-10T18:56:59.718245+00:00",
        "meta_object_name": "SCD 1",
        "meta_object_id": "1993-009B",
        "meta_epoch": "2025-12-10T04:53:32.246016",
        "meta_mean_motion": 14.45996078,
        "meta_eccentricity": 0.00417365,
        "meta_inclination": 24.9703,
        "meta_ra_of_asc_node": 294.3414,
        "meta_arg_of_pericenter": 298.0723,
        "meta_mean_anomaly": 102.906,
        "meta_ephemeris_type": 0,
        "meta_classification_type": "U",
        "meta_norad_cat_id": 22490,
        "meta_element_set_no": 999,
        "meta_rev_at_epoch": 73373,
        "meta_bstar": 0.00014937956,
        "meta_mean_motion_dot": 7.32e-06,
        "meta_mean_motion_ddot": 0,
        "tle_line1": "1 22490U 93009B   25344.20384544  .00000732  00000+0  14938-3 0  9995",
        "tle_line2": "2 22490  24.9703 294.3414 0041736 298.0723 102.9060 14.45996078733737"
      },
      "geometry": {
        "type": "Point",
        "coordinates": [
          143.9381503302053,
          -14.299836092087775
        ]
      }
    },
    {
      "type": "Feature",
      "properties": {
        "norad_id": 25397,
        "name": "TECHSAT 1B (GO-32)",
        "group": "resource",
        "lat": -72.38163685617442,
        "lon": 118.04965248117183,
        "alt_km": 819.3386209995979,
        "timestamp": "2025-12-10T18:56:59.718274+00:00",
        "meta_object_name": "TECHSAT 1B (GO-32)",
        "meta_object_id": "1998-043D",
        "meta_epoch": "2025-12-10T09:19:40.960128",
        "meta_mean_motion": 14.24375977,
        "meta_eccentricity": 0.000213,
        "meta_inclination": 98.9918,
        "meta_ra_of_asc_node": 327.5465,
        "meta_arg_of_pericenter": 61.168,
        "meta_mean_anomaly": 298.9711,
        "meta_ephemeris_type": 0,
        "meta_classification_type": "U",
        "meta_norad_cat_id": 25397,
        "meta_element_set_no": 999,
        "meta_rev_at_epoch": 42445,
        "meta_bstar": 9.4255e-05,
        "meta_mean_motion_dot": 1.71e-06,
        "meta_mean_motion_ddot": 0,
        "tle_line1": "1 25397U 98043D   25344.38866852  .00000171  00000+0  94255-4 0  9991",
        "tle_line2": "2 25397  98.9918 327.5465 0002130  61.1680 298.9711 14.24375977424457"
      },
      "geometry": {
        "type": "Point",
        "coordinates": [
          118.04965248117183,
          -72.38163685617442
        ]
      }
    },
    {
      "type": "Feature",
      "properties": {
        "norad_id": 25504,
        "name": "SCD 2",
        "group": "resource",
        "lat": -23.721533314367598,
        "lon": 44.52721064645197,
        "alt_km": 732.1708516538429,
        "timestamp": "2025-12-10T18:56:59.718290+00:00",
        "meta_object_name": "SCD 2",
        "meta_object_id": "1998-060A",
        "meta_epoch": "2025-12-10T05:20:00.938112",
        "meta_mean_motion": 14.45421199,
        "meta_eccentricity": 0.0016597,
        "meta_inclination": 24.9931,
        "meta_ra_of_asc_node": 157.4199,
        "meta_arg_of_pericenter": 286.7384,
        "meta_mean_anomaly": 247.4751,
        "meta_ephemeris_type": 0,
        "meta_classification_type": "U",
        "meta_norad_cat_id": 25504,
        "meta_element_set_no": 999,
        "meta_rev_at_epoch": 43295,
        "meta_bstar": 0.00011777,
        "meta_mean_motion_dot": 6.04e-06,
        "meta_mean_motion_ddot": 0,
        "tle_line1": "1 25504U 98060A   25344.22223308  .00000604  00000+0  11777-3 0  9994",
        "tle_line2": "2 25504  24.9931 157.4199 0016597 286.7384 247.4751 14.45421199432951"
      },
      "geometry": {
        "type": "Point",
        "coordinates": [
          44.52721064645197,
          -23.721533314367598
        ]
      }
    },
    {
      "type": "Feature",
      "properties": {
        "norad_id": 25757,
        "name": "DLR-TUBSAT",
        "group": "resource",
        "lat": -78.82372594998343,
        "lon": 19.690886741964245,
        "alt_km": 723.2791501299698,
        "timestamp": "2025-12-10T18:56:59.718302+00:00",
        "meta_object_name": "DLR-TUBSAT",
        "meta_object_id": "1999-029B",
        "meta_epoch": "2025-12-10T09:24:39.471264",
        "meta_mean_motion": 14.52356238,
        "meta_eccentricity": 0.0013759,
        "meta_inclination": 98.6562,
        "meta_ra_of_asc_node": 328.8334,
        "meta_arg_of_pericenter": 200.082,
        "meta_mean_anomaly": 159.9835,
        "meta_ephemeris_type": 0,
        "meta_classification_type": "U",
        "meta_norad_cat_id": 25757,
        "meta_element_set_no": 999,
        "meta_rev_at_epoch": 40584,
        "meta_bstar": 7.36e-05,
        "meta_mean_motion_dot": 2.51e-06,
        "meta_mean_motion_ddot": 0,
        "tle_line1": "1 25757U 99029B   25344.39212351  .00000251  00000+0  73600-4 0  9996",
        "tle_line2": "2 25757  98.6562 328.8334 0013759 200.0820 159.9835 14.52356238405842"
      },
      "geometry": {
        "type": "Point",
        "coordinates": [
          19.690886741964245,
          -78.82372594998343
        ]
      }
    },
    {
      "type": "Feature",
      "properties": {
        "norad_id": 25994,
        "name": "TERRA",
        "group": "resource",
        "lat": -76.96513611172179,
        "lon": 73.81466450153434,
        "alt_km": 700.1458044920046,
        "timestamp": "2025-12-10T18:56:59.718314+00:00",
        "meta_object_name": "TERRA",
        "meta_object_id": "1999-068A",
        "meta_epoch": "2025-12-10T09:30:00.919008",
        "meta_mean_motion": 14.60897678,
        "meta_eccentricity": 0.0003593,
        "meta_inclination": 97.9752,
        "meta_ra_of_asc_node": 36.1664,
        "meta_arg_of_pericenter": 99.131,
        "meta_mean_anomaly": 271.7216,
        "meta_ephemeris_type": 0,
        "meta_classification_type": "U",
        "meta_norad_cat_id": 25994,
        "meta_element_set_no": 999,
        "meta_rev_at_epoch": 38204,
        "meta_bstar": 0.00015965,
        "meta_mean_motion_dot": 7.37e-06,
        "meta_mean_motion_ddot": 0,
        "tle_line1": "1 25994U 99068A   25344.39584397  .00000737  00000+0  15965-3 0  9992",
        "tle_line2": "2 25994  97.9752  36.1664 0003593  99.1310 271.7216 14.60897678382048"
      },
      "geometry": {
        "type": "Point",
        "coordinates": [
          73.81466450153434,
          -76.96513611172179
        ]
      }
    },
    {
      "type": "Feature",
      "properties": {
        "norad_id": 27004,
        "name": "MAROC-TUBSAT",
        "group": "resource",
        "lat": -4.238861754338636,
        "lon": -27.53309148755195,
        "alt_km": 999.8248612127309,
        "timestamp": "2025-12-10T18:56:59.718326+00:00",
        "meta_object_name": "MAROC-TUBSAT",
        "meta_object_id": "2001-056D",
        "meta_epoch": "2025-12-10T11:07:51.424032",
        "meta_mean_motion": 13.70252712,
        "meta_eccentricity": 0.0019092,
        "meta_inclination": 99.7912,
        "meta_ra_of_asc_node": 152.8689,
        "meta_arg_of_pericenter": 266.2021,
        "meta_mean_anomaly": 111.9402,
        "meta_ephemeris_type": 0,
        "meta_classification_type": "U",
        "meta_norad_cat_id": 27004,
        "meta_element_set_no": 999,
        "meta_rev_at_epoch": 20034,
        "meta_bstar": 4.2569e-05,
        "meta_mean_motion_dot": -9e-08,
        "meta_mean_motion_ddot": 0,
        "tle_line1": "1 27004U 01056D   25344.46378963 -.00000009  00000+0  42569-4 0  9998",
        "tle_line2": "2 27004  99.7912 152.8689 0019092 266.2021 111.9402 13.70252712200348"
      },
      "geometry": {
        "type": "Point",
        "coordinates": [
          -27.53309148755195,
          -4.238861754338636
        ]
      }
    },
    {
      "type": "Feature",
      "properties": {
        "norad_id": 27424,
        "name": "AQUA",
        "group": "resource",
        "lat": 30.51588733136685,
        "lon": 130.6355953548406,
        "alt_km": 685.1653818725836,
        "timestamp": "2025-12-10T18:56:59.718337+00:00",
        "meta_object_name": "AQUA",
        "meta_object_id": "2002-022A",
        "meta_epoch": "2025-12-10T12:12:11.572992",
        "meta_mean_motion": 14.61800641,
        "meta_eccentricity": 0.0001003,
        "meta_inclination": 98.4035,
        "meta_ra_of_asc_node": 305.3513,
        "meta_arg_of_pericenter": 114.4534,
        "meta_mean_anomaly": 356.0813,
        "meta_ephemeris_type": 0,
        "meta_classification_type": "U",
        "meta_norad_cat_id": 27424,
        "meta_element_set_no": 999,
        "meta_rev_at_epoch": 25570,
        "meta_bstar": 0.00036243,
        "meta_mean_motion_dot": 1.76e-05,
        "meta_mean_motion_ddot": 0,
        "tle_line1": "1 27424U 02022A   25344.50846728  .00001760  00000+0  36243-3 0  9997",
        "tle_line2": "2 27424  98.4035 305.3513 0001003 114.4534 356.0813 14.61800641255702"
      },
      "geometry": {
        "type": "Point",
        "coordinates": [
          130.6355953548406,
          30.51588733136685
        ]
      }
    }
  ]
}